{
    "links": {
        "self": "http://www.neowsapp.com/rest/v1/neo/3625069?api_key=iIulBulltgU6a56xZRHN4H3l9WmuAYTsLGpBGhQ2"
    },
    "id": "3625069",
    "neo_reference_id": "3625069",
    "name": "(2013 BP27)",
    "designation": "2013 BP27",
    "nasa_jpl_url": "http://ssd.jpl.nasa.gov/sbdb.cgi?sstr=3625069",
    "absolute_magnitude_h": 25.3,
    "estimated_diameter": {
        "kilometers": {
            "estimated_diameter_min": 0.0231502122,
            "estimated_diameter_max": 0.0517654482
        },
        "meters": {
            "estimated_diameter_min": 23.150212221,
            "estimated_diameter_max": 51.7654482198
        },
        "miles": {
            "estimated_diameter_min": 0.0143848705,
            "estimated_diameter_max": 0.0321655483
        },
        "feet": {
            "estimated_diameter_min": 75.9521422633,
            "estimated_diameter_max": 169.8341531374
        }
    },
    "is_potentially_hazardous_asteroid": false,
    "close_approach_data": [
        {
            "close_approach_date": "2013-01-24",
            "close_approach_date_full": "2013-Jan-24 17:52",
            "epoch_date_close_approach": 1359049920000,
            "relative_velocity": {
                "kilometers_per_second": "14.0675565893",
                "kilometers_per_hour": "50643.2037216262",
                "miles_per_hour": "31467.717334696"
            },
            "miss_distance": {
                "astronomical": "0.0926838716",
                "lunar": "36.0540260524",
                "kilometers": "13865309.774713492",
                "miles": "8615503.9877785096"
            },
            "orbiting_body": "Earth"
        }
    ],
    "orbital_data": {
        "orbit_id": "4",
        "orbit_determination_date": "2017-04-06 08:47:02",
        "first_observation_date": "2013-01-20",
        "last_observation_date": "2013-01-21",
        "data_arc_in_days": 1,
        "observations_used": 25,
        "orbit_uncertainty": "9",
        "minimum_orbit_intersection": ".092176",
        "jupiter_tisserand_invariant": "3.702",
        "epoch_osculation": "2456313.5",
        "eccentricity": ".4593233158204371",
        "semi_major_axis": "1.925066579351721",
        "inclination": "22.44095729325128",
        "ascending_node_longitude": "300.7176808847786",
        "orbital_period": "975.5893674088074",
        "perihelion_distance": "1.040838614948782",
        "perihelion_argument": "209.0746781756739",
        "aphelion_distance": "2.80929454375466",
        "perihelion_time": "2456339.211989423412",
        "mean_anomaly": "350.5120776203073",
        "mean_motion": ".3690077116729655",
        "equinox": "J2000",
        "orbit_class": {
            "orbit_class_type": "AMO",
            "orbit_class_description": "Near-Earth asteroid orbits similar to that of 1221 Amor",
            "orbit_class_range": "1.017 AU < q (perihelion) < 1.3 AU"
        }
    },
    "is_sentry_object": false
}